start=new Date('2021-09-03T00:00:00.000Z').valueOf();
sats=[{"RA_OF_ASC_NODE":"290.5300","COUNTRY_CODE":"US","OBJECT_NAME":"STARLINK-1354","PERIOD":"95.593","MEAN_MOTION":"15.06383520","MEAN_MOTION_DOT":"0.00000895","TLE_LINE1":"1 45562U 20025AH  21245.41116844  .00000895  00000-0  79023-4 0  9991","NORAD_CAT_ID":"45562","MEAN_ELEMENT_THEORY":"SGP4","SITE":"AFETR","REF_FRAME":"TEME","MEAN_MOTION_DDOT":"0.0000000000000","FILE":"3107538","BSTAR":"0.00007902300000","ARG_OF_PERICENTER":"84.6824","INCLINATION":"53.0538","TLE_LINE2":"2 45562  53.0538 290.5300 0000979  84.6824 275.4277 15.06383520 76789","OBJECT_TYPE":"PAYLOAD","PERIAPSIS":"546.586","CLASSIFICATION_TYPE":"U","APOAPSIS":"547.942","SEMIMAJOR_AXIS":"6925.399","TIME_SYSTEM":"UTC","DECAY_DATE":null,"EPHEMERIS_TYPE":"0","MEAN_ANOMALY":"275.4277","EPOCH":"2021-09-02T09:52:04.953216","ELEMENT_SET_NO":"999","CENTER_NAME":"EARTH","GP_ID":"183958576","REV_AT_EPOCH":"7678","RCS_SIZE":"LARGE","OBJECT_ID":"2020-025AH","ECCENTRICITY":"0.00009790","LAUNCH_DATE":"2020-04-22"},{"TLE_LINE2":"2 45563  53.0547 290.1616 0000831  84.0585 276.0498 15.06396995 76794","INCLINATION":"53.0547","OBJECT_TYPE":"PAYLOAD","FILE":"3107538","ARG_OF_PERICENTER":"84.0585","BSTAR":"0.00008201100000","REF_FRAME":"TEME","MEAN_MOTION_DDOT":"0.0000000000000","SITE":"AFETR","MEAN_ELEMENT_THEORY":"SGP4","TLE_LINE1":"1 45563U 20025AJ  21245.49223237  .00000940  00000-0  82011-4 0  9997","NORAD_CAT_ID":"45563","MEAN_MOTION_DOT":"0.00000940","MEAN_MOTION":"15.06396995","PERIOD":"95.592","COUNTRY_CODE":"US","OBJECT_NAME":"STARLINK-1355","RA_OF_ASC_NODE":"290.1616","LAUNCH_DATE":"2020-04-22","GP_ID":"183959824","OBJECT_ID":"2020-025AJ","RCS_SIZE":"LARGE","REV_AT_EPOCH":"7679","ECCENTRICITY":"0.00008310","CENTER_NAME":"EARTH","ELEMENT_SET_NO":"999","EPOCH":"2021-09-02T11:48:48.876768","MEAN_ANOMALY":"276.0498","EPHEMERIS_TYPE":"0","DECAY_DATE":null,"APOAPSIS":"547.798","PERIAPSIS":"546.647","CLASSIFICATION_TYPE":"U","SEMIMAJOR_AXIS":"6925.358","TIME_SYSTEM":"UTC"},{"MEAN_MOTION":"15.06386222","PERIOD":"95.593","MEAN_MOTION_DOT":"0.00000227","RA_OF_ASC_NODE":"289.5854","COUNTRY_CODE":"US","OBJECT_NAME":"STARLINK-1356","MEAN_MOTION_DDOT":"0.0000000000000","REF_FRAME":"TEME","BSTAR":"0.00003414700000","FILE":"3107724","ARG_OF_PERICENTER":"76.0289","TLE_LINE2":"2 45564  53.0523 289.5854 0000602  76.0289 284.0767 15.06386222 76816","INCLINATION":"53.0523","OBJECT_TYPE":"PAYLOAD","TLE_LINE1":"1 45564U 20025AK  21245.62124702  .00000227  00000-0  34147-4 0  9995","NORAD_CAT_ID":"45564","MEAN_ELEMENT_THEORY":"SGP4","SITE":"AFETR","DECAY_DATE":null,"EPHEMERIS_TYPE":"0","MEAN_ANOMALY":"284.0767","EPOCH":"2021-09-02T14:54:35.742528","ELEMENT_SET_NO":"999","CENTER_NAME":"EARTH","APOAPSIS":"547.673","PERIAPSIS":"546.839","CLASSIFICATION_TYPE":"U","SEMIMAJOR_AXIS":"6925.391","TIME_SYSTEM":"UTC","GP_ID":"183986791","RCS_SIZE":"LARGE","REV_AT_EPOCH":"7681","OBJECT_ID":"2020-025AK","ECCENTRICITY":"0.00006020","LAUNCH_DATE":"2020-04-22"},{"REF_FRAME":"TEME","MEAN_MOTION_DDOT":"0.0000000000000","BSTAR":"-0.00004242800000","FILE":"3107724","ARG_OF_PERICENTER":"77.3815","OBJECT_TYPE":"PAYLOAD","TLE_LINE2":"2 45565  53.0531 289.6182 0000791  77.3815 282.7263 15.06390684 76812","INCLINATION":"53.0531","NORAD_CAT_ID":"45565","TLE_LINE1":"1 45565U 20025AL  21245.61386386 -.00000913  00000-0 -42428-4 0  9998","MEAN_ELEMENT_THEORY":"SGP4","SITE":"AFETR","MEAN_MOTION":"15.06390684","PERIOD":"95.593","MEAN_MOTION_DOT":"-0.00000913","RA_OF_ASC_NODE":"289.6182","OBJECT_NAME":"STARLINK-1357","COUNTRY_CODE":"US","ECCENTRICITY":"0.00007910","GP_ID":"183987542","REV_AT_EPOCH":"7681","RCS_SIZE":"LARGE","OBJECT_ID":"2020-025AL","LAUNCH_DATE":"2020-04-22","EPHEMERIS_TYPE":"0","DECAY_DATE":null,"EPOCH":"2021-09-02T14:43:57.837504","MEAN_ANOMALY":"282.7263","ELEMENT_SET_NO":"999","CENTER_NAME":"EARTH","TIME_SYSTEM":"UTC","SEMIMAJOR_AXIS":"6925.377","PERIAPSIS":"546.694","APOAPSIS":"547.790","CLASSIFICATION_TYPE":"U"},{"ECCENTRICITY":"0.00007600","GP_ID":"183985790","REV_AT_EPOCH":"7681","RCS_SIZE":"LARGE","OBJECT_ID":"2020-025AM","LAUNCH_DATE":"2020-04-22","EPHEMERIS_TYPE":"0","DECAY_DATE":null,"MEAN_ANOMALY":"265.8604","EPOCH":"2021-09-02T15:05:12.567552","ELEMENT_SET_NO":"999","CENTER_NAME":"EARTH","TIME_SYSTEM":"UTC","SEMIMAJOR_AXIS":"6925.376","PERIAPSIS":"546.715","APOAPSIS":"547.768","CLASSIFICATION_TYPE":"U","MEAN_MOTION_DDOT":"0.0000000000000","REF_FRAME":"TEME","FILE":"3107724","ARG_OF_PERICENTER":"94.2472","BSTAR":"-0.00003578000000","INCLINATION":"53.0562","TLE_LINE2":"2 45566  53.0562 289.5444 0000760  94.2472 265.8604 15.06390965 76813","OBJECT_TYPE":"PAYLOAD","NORAD_CAT_ID":"45566","TLE_LINE1":"1 45566U 20025AM  21245.62861768 -.00000814  00000-0 -35780-4 0  9995","MEAN_ELEMENT_THEORY":"SGP4","SITE":"AFETR","PERIOD":"95.593","MEAN_MOTION":"15.06390965","MEAN_MOTION_DOT":"-0.00000814","RA_OF_ASC_NODE":"289.5444","OBJECT_NAME":"STARLINK-1358","COUNTRY_CODE":"US"},{"REF_FRAME":"TEME","MEAN_MOTION_DDOT":"0.0000000000000","ARG_OF_PERICENTER":"86.8478","FILE":"3107724","BSTAR":"0.00007391600000","TLE_LINE2":"2 45567  53.0535 289.5019 0000786  86.8478 273.2601 15.06386672 76824","OBJECT_TYPE":"PAYLOAD","INCLINATION":"53.0535","TLE_LINE1":"1 45567U 20025AN  21245.63968883  .00000820  00000-0  73916-4 0  9991","NORAD_CAT_ID":"45567","MEAN_ELEMENT_THEORY":"SGP4","SITE":"AFETR","PERIOD":"95.593","MEAN_MOTION":"15.06386672","MEAN_MOTION_DOT":"0.00000820","RA_OF_ASC_NODE":"289.5019","COUNTRY_CODE":"US","OBJECT_NAME":"STARLINK-1361","OBJECT_ID":"2020-025AN","GP_ID":"183986040","RCS_SIZE":"LARGE","REV_AT_EPOCH":"7682","ECCENTRICITY":"0.00007860","LAUNCH_DATE":"2020-04-22","EPHEMERIS_TYPE":"0","DECAY_DATE":null,"MEAN_ANOMALY":"273.2601","EPOCH":"2021-09-02T15:21:09.114912","ELEMENT_SET_NO":"999","CENTER_NAME":"EARTH","PERIAPSIS":"546.710","SEMIMAJOR_AXIS":"6925.389","APOAPSIS":"547.799","CLASSIFICATION_TYPE":"U","TIME_SYSTEM":"UTC"},{"LAUNCH_DATE":"2020-04-22","RCS_SIZE":"LARGE","GP_ID":"183987292","REV_AT_EPOCH":"7681","OBJECT_ID":"2020-025AP","ECCENTRICITY":"0.00008940","CENTER_NAME":"EARTH","ELEMENT_SET_NO":"999","EPOCH":"2021-09-02T15:09:09.877248","MEAN_ANOMALY":"273.6948","DECAY_DATE":null,"EPHEMERIS_TYPE":"0","SEMIMAJOR_AXIS":"6925.377","PERIAPSIS":"546.622","APOAPSIS":"547.861","CLASSIFICATION_TYPE":"U","TIME_SYSTEM":"UTC","TLE_LINE2":"2 45568  53.0540 289.5401 0000894  86.4143 273.6948 15.06390852 76813","INCLINATION":"53.0540","OBJECT_TYPE":"PAYLOAD","FILE":"3107724","BSTAR":"0.00008263600000","ARG_OF_PERICENTER":"86.4143","MEAN_MOTION_DDOT":"0.0000000000000","REF_FRAME":"TEME","SITE":"AFETR","MEAN_ELEMENT_THEORY":"SGP4","TLE_LINE1":"1 45568U 20025AP  21245.63136432  .00000950  00000-0  82636-4 0  9992","NORAD_CAT_ID":"45568","MEAN_MOTION_DOT":"0.00000950","PERIOD":"95.593","MEAN_MOTION":"15.06390852","COUNTRY_CODE":"US","OBJECT_NAME":"STARLINK-1363","RA_OF_ASC_NODE":"289.5401"},{"ECCENTRICITY":"0.00009640","RCS_SIZE":"LARGE","GP_ID":"183987042","OBJECT_ID":"2020-025AQ","REV_AT_EPOCH":"7681","LAUNCH_DATE":"2020-04-22","EPOCH":"2021-09-02T15:26:28.672224","MEAN_ANOMALY":"260.5733","DECAY_DATE":null,"EPHEMERIS_TYPE":"0","CENTER_NAME":"EARTH","ELEMENT_SET_NO":"999","TIME_SYSTEM":"UTC","APOAPSIS":"547.937","PERIAPSIS":"546.602","SEMIMAJOR_AXIS":"6925.405","CLASSIFICATION_TYPE":"U","MEAN_MOTION_DDOT":"0.0000000000000","REF_FRAME":"TEME","TLE_LINE2":"2 45569  53.0540 289.4836 0000964  99.5365 260.5733 15.06381680 76810","OBJECT_TYPE":"PAYLOAD","INCLINATION":"53.0540","FILE":"3107724","BSTAR":"0.00008098700000","ARG_OF_PERICENTER":"99.5365","MEAN_ELEMENT_THEORY":"SGP4","NORAD_CAT_ID":"45569","TLE_LINE1":"1 45569U 20025AQ  21245.64338741  .00000925  00000-0  80987-4 0  9990","SITE":"AFETR","MEAN_MOTION_DOT":"0.00000925","MEAN_MOTION":"15.06381680","PERIOD":"95.593","RA_OF_ASC_NODE":"289.4836","OBJECT_NAME":"STARLINK-1366","COUNTRY_CODE":"US"},{"PERIAPSIS":"546.388","APOAPSIS":"548.074","SEMIMAJOR_AXIS":"6925.366","CLASSIFICATION_TYPE":"U","TIME_SYSTEM":"UTC","DECAY_DATE":null,"EPHEMERIS_TYPE":"0","EPOCH":"2021-09-02T15:15:50.394816","MEAN_ANOMALY":"262.9518","ELEMENT_SET_NO":"999","CENTER_NAME":"EARTH","GP_ID":"183986291","RCS_SIZE":"LARGE","REV_AT_EPOCH":"7681","OBJECT_ID":"2020-025AR","ECCENTRICITY":"0.00012170","LAUNCH_DATE":"2020-04-22","RA_OF_ASC_NODE":"289.5190","COUNTRY_CODE":"US","OBJECT_NAME":"STARLINK-1376","PERIOD":"95.592","MEAN_MOTION":"15.06394395","MEAN_MOTION_DOT":"0.00002727","TLE_LINE1":"1 45570U 20025AR  21245.63599994  .00002727  00000-0  20195-3 0  9996","NORAD_CAT_ID":"45570","MEAN_ELEMENT_THEORY":"SGP4","SITE":"AFETR","MEAN_MOTION_DDOT":"0.0000000000000","REF_FRAME":"TEME","ARG_OF_PERICENTER":"97.1610","FILE":"3107724","BSTAR":"0.00020195000000","TLE_LINE2":"2 45570  53.0537 289.5190 0001217  97.1610 262.9518 15.06394395 76815","INCLINATION":"53.0537","OBJECT_TYPE":"PAYLOAD"},{"MEAN_MOTION_DDOT":"0.0000000000000","REF_FRAME":"TEME","ARG_OF_PERICENTER":"104.0608","FILE":"3107724","BSTAR":"0.00031870000000","INCLINATION":"53.0534","TLE_LINE2":"2 45571  53.0534 278.8553 0000834 104.0608 256.0474 15.06403691 76990","OBJECT_TYPE":"PAYLOAD","NORAD_CAT_ID":"45571","TLE_LINE1":"1 45571U 20025AS  21245.78435696  .00004469  00000-0  31870-3 0  9998","MEAN_ELEMENT_THEORY":"SGP4","SITE":"AFETR","MEAN_MOTION":"15.06403691","PERIOD":"95.592","MEAN_MOTION_DOT":"0.00004469","RA_OF_ASC_NODE":"278.8553","OBJECT_NAME":"STARLINK-1261","COUNTRY_CODE":"US","ECCENTRICITY":"0.00008340","REV_AT_EPOCH":"7699","GP_ID":"183986541","RCS_SIZE":"LARGE","OBJECT_ID":"2020-025AS","LAUNCH_DATE":"2020-04-22","EPHEMERIS_TYPE":"0","DECAY_DATE":null,"MEAN_ANOMALY":"256.0474","EPOCH":"2021-09-02T18:49:28.441344","ELEMENT_SET_NO":"999","CENTER_NAME":"EARTH","TIME_SYSTEM":"UTC","CLASSIFICATION_TYPE":"U","PERIAPSIS":"546.625","APOAPSIS":"547.780","SEMIMAJOR_AXIS":"6925.337"}];
